SL-3 R/B                
1 13403U 82079B   26027.25022161  .00007518  00000+0  30490-3 0  9992
2 13403  81.1449 241.9918 0024512 308.1829  51.7196 15.24208161371380
SL-14 R/B               
1 13553U 82092B   26026.86421242  .00000965  00000+0  10559-3 0  9995
2 13553  82.5686 180.5081 0021845  80.7405  79.7333 14.86614336322710
SL-3 R/B                
1 13819U 83010B   26027.32703672  .00019365  00000+0  40887-3 0  9994
2 13819  81.1024  52.9088 0016914 185.7817 174.3235 15.44905807351557
SL-3 R/B                
1 14208U 83075B   26027.17428550  .00016535  00000+0  45049-3 0  9991
2 14208  97.6128  30.2248 0023008  23.3421 336.8862 15.37293380323776
COSMOS 1536             
1 14699U 84013A   26026.75110629  .00010107  00000+0  42426-3 0  9991
2 14699  82.5468 149.5065 0015665  72.4275 287.8672 15.23219580266239
SL-14 R/B               
1 14820U 84027B   26027.14535761  .00000738  00000+0  81485-4 0  9992
2 14820  82.5421 283.9817 0019438 109.2696 251.0626 14.85933297241465
SL-8 R/B                
1 15483U 85006B   26027.33783822  .00000545  00000+0  18933-3 0  9993
2 15483  74.0475 337.2357 0019751 262.3989 212.8029 14.37759528148088
SL-12 R/B(2)            
1 15772U 85042D   26026.85795770  .00000202  00000+0  11225-3 0  9992
2 15772  71.1075 176.1032 0035741 194.3274 327.5137 14.21968411108447
SL-14 R/B               
1 15945U 85069B   26027.14272787  .00000738  00000+0  80794-4 0  9996
2 15945  82.5243  64.0117 0018057 334.5205  25.5119 14.86382601166669
SL-16 R/B               
1 16182U 85097B   26027.27643860  .00000149  00000+0  98905-4 0  9998
2 16182  71.0000 227.7369 0009059 308.5413 224.8615 14.16591378 81362
SL-14 R/B               
1 16496U 86006B   26027.26523976  .00001312  00000+0  13664-3 0  9992
2 16496  82.5284 298.7222 0077911  50.7530 310.0566 14.86750908143056
COSMOS 1743             
1 16719U 86034A   26027.31780561  .00047316  00000+0  68997-3 0  9995
2 16719  82.5355 117.1439 0005482  87.0109 273.1772 15.55477875173817
