CCSDS_OMM_VERS = 2.0
CREATION_DATE  = 
ORIGINATOR     = 

OBJECT_NAME    = SL-3 R/B
OBJECT_ID      = 1982-079B
CENTER_NAME    = EARTH
REF_FRAME      = TEME
TIME_SYSTEM    = UTC
MEAN_ELEMENT_THEORY = SGP/SGP4

EPOCH          = 2026-01-27T06:00:19.147104
MEAN_MOTION    = 15.24208161
ECCENTRICITY   = .00245125
INCLINATION    = 81.1449
RA_OF_ASC_NODE = 241.9918
ARG_OF_PERICENTER = 308.1829
MEAN_ANOMALY   = 51.7196

EPHEMERIS_TYPE = 0
CLASSIFICATION_TYPE = U
NORAD_CAT_ID   = 13403
ELEMENT_SET_NO = 999
REV_AT_EPOCH   = 37138
BSTAR          = .30489767E-3
MEAN_MOTION_DOT = .7518E-4
MEAN_MOTION_DDOT = 0

CCSDS_OMM_VERS = 2.0
CREATION_DATE  = 
ORIGINATOR     = 

OBJECT_NAME    = SL-14 R/B
OBJECT_ID      = 1982-092B
CENTER_NAME    = EARTH
REF_FRAME      = TEME
TIME_SYSTEM    = UTC
MEAN_ELEMENT_THEORY = SGP/SGP4

EPOCH          = 2026-01-26T20:44:27.953088
MEAN_MOTION    = 14.86614336
ECCENTRICITY   = .00218458
INCLINATION    = 82.5686
RA_OF_ASC_NODE = 180.5081
ARG_OF_PERICENTER = 80.7405
MEAN_ANOMALY   = 79.7333

EPHEMERIS_TYPE = 0
CLASSIFICATION_TYPE = U
NORAD_CAT_ID   = 13553
ELEMENT_SET_NO = 999
REV_AT_EPOCH   = 32271
BSTAR          = .10559105E-3
MEAN_MOTION_DOT = .965E-5
MEAN_MOTION_DDOT = 0

CCSDS_OMM_VERS = 2.0
CREATION_DATE  = 
ORIGINATOR     = 

OBJECT_NAME    = SL-3 R/B
OBJECT_ID      = 1983-010B
CENTER_NAME    = EARTH
REF_FRAME      = TEME
TIME_SYSTEM    = UTC
MEAN_ELEMENT_THEORY = SGP/SGP4

EPOCH          = 2026-01-27T07:50:55.972608
MEAN_MOTION    = 15.44905807
ECCENTRICITY   = .00169147
INCLINATION    = 81.1024
RA_OF_ASC_NODE = 52.9088
ARG_OF_PERICENTER = 185.7817
MEAN_ANOMALY   = 174.3235

EPHEMERIS_TYPE = 0
CLASSIFICATION_TYPE = U
NORAD_CAT_ID   = 13819
ELEMENT_SET_NO = 999
REV_AT_EPOCH   = 35155
BSTAR          = .4088691E-3
MEAN_MOTION_DOT = .19365E-3
MEAN_MOTION_DDOT = 0

CCSDS_OMM_VERS = 2.0
CREATION_DATE  = 
ORIGINATOR     = 

OBJECT_NAME    = SL-3 R/B
OBJECT_ID      = 1983-075B
CENTER_NAME    = EARTH
REF_FRAME      = TEME
TIME_SYSTEM    = UTC
MEAN_ELEMENT_THEORY = SGP/SGP4

EPOCH          = 2026-01-27T04:10:58.267200
MEAN_MOTION    = 15.37293380
ECCENTRICITY   = .00230089
INCLINATION    = 97.6128
RA_OF_ASC_NODE = 30.2248
ARG_OF_PERICENTER = 23.3421
MEAN_ANOMALY   = 336.8862

EPHEMERIS_TYPE = 0
CLASSIFICATION_TYPE = U
NORAD_CAT_ID   = 14208
ELEMENT_SET_NO = 999
REV_AT_EPOCH   = 32377
BSTAR          = .45049034E-3
MEAN_MOTION_DOT = .16535E-3
MEAN_MOTION_DDOT = 0

CCSDS_OMM_VERS = 2.0
CREATION_DATE  = 
ORIGINATOR     = 

OBJECT_NAME    = COSMOS 1536
OBJECT_ID      = 1984-013A
CENTER_NAME    = EARTH
REF_FRAME      = TEME
TIME_SYSTEM    = UTC
MEAN_ELEMENT_THEORY = SGP/SGP4

EPOCH          = 2026-01-26T18:01:35.583456
MEAN_MOTION    = 15.23219580
ECCENTRICITY   = .00156658
INCLINATION    = 82.5468
RA_OF_ASC_NODE = 149.5065
ARG_OF_PERICENTER = 72.4275
MEAN_ANOMALY   = 287.8672

EPHEMERIS_TYPE = 0
CLASSIFICATION_TYPE = U
NORAD_CAT_ID   = 14699
ELEMENT_SET_NO = 999
REV_AT_EPOCH   = 26623
BSTAR          = .42426316E-3
MEAN_MOTION_DOT = .10107E-3
MEAN_MOTION_DDOT = 0

CCSDS_OMM_VERS = 2.0
CREATION_DATE  = 
ORIGINATOR     = 

OBJECT_NAME    = SL-14 R/B
OBJECT_ID      = 1984-027B
CENTER_NAME    = EARTH
REF_FRAME      = TEME
TIME_SYSTEM    = UTC
MEAN_ELEMENT_THEORY = SGP/SGP4

EPOCH          = 2026-01-27T03:29:18.897504
MEAN_MOTION    = 14.85933297
ECCENTRICITY   = .00194388
INCLINATION    = 82.5421
RA_OF_ASC_NODE = 283.9817
ARG_OF_PERICENTER = 109.2696
MEAN_ANOMALY   = 251.0626

EPHEMERIS_TYPE = 0
CLASSIFICATION_TYPE = U
NORAD_CAT_ID   = 14820
ELEMENT_SET_NO = 999
REV_AT_EPOCH   = 24146
BSTAR          = .81484848E-4
MEAN_MOTION_DOT = .738E-5
MEAN_MOTION_DDOT = 0

CCSDS_OMM_VERS = 2.0
CREATION_DATE  = 
ORIGINATOR     = 

OBJECT_NAME    = SL-8 R/B
OBJECT_ID      = 1985-006B
CENTER_NAME    = EARTH
REF_FRAME      = TEME
TIME_SYSTEM    = UTC
MEAN_ELEMENT_THEORY = SGP/SGP4

EPOCH          = 2026-01-27T08:06:29.222208
MEAN_MOTION    = 14.37759528
ECCENTRICITY   = .00197518
INCLINATION    = 74.0475
RA_OF_ASC_NODE = 337.2357
ARG_OF_PERICENTER = 262.3989
MEAN_ANOMALY   = 212.8029

EPHEMERIS_TYPE = 0
CLASSIFICATION_TYPE = U
NORAD_CAT_ID   = 15483
ELEMENT_SET_NO = 999
REV_AT_EPOCH   = 14808
BSTAR          = .18933058E-3
MEAN_MOTION_DOT = .545E-5
MEAN_MOTION_DDOT = 0

CCSDS_OMM_VERS = 2.0
CREATION_DATE  = 
ORIGINATOR     = 

OBJECT_NAME    = SL-12 R/B(2)
OBJECT_ID      = 1985-042D
CENTER_NAME    = EARTH
REF_FRAME      = TEME
TIME_SYSTEM    = UTC
MEAN_ELEMENT_THEORY = SGP/SGP4

EPOCH          = 2026-01-26T20:35:27.545280
MEAN_MOTION    = 14.21968411
ECCENTRICITY   = .00357417
INCLINATION    = 71.1075
RA_OF_ASC_NODE = 176.1032
ARG_OF_PERICENTER = 194.3274
MEAN_ANOMALY   = 327.5137

EPHEMERIS_TYPE = 0
CLASSIFICATION_TYPE = U
NORAD_CAT_ID   = 15772
ELEMENT_SET_NO = 999
REV_AT_EPOCH   = 10844
BSTAR          = .11225194E-3
MEAN_MOTION_DOT = .202E-5
MEAN_MOTION_DDOT = 0

CCSDS_OMM_VERS = 2.0
CREATION_DATE  = 
ORIGINATOR     = 

OBJECT_NAME    = SL-14 R/B
OBJECT_ID      = 1985-069B
CENTER_NAME    = EARTH
REF_FRAME      = TEME
TIME_SYSTEM    = UTC
MEAN_ELEMENT_THEORY = SGP/SGP4

EPOCH          = 2026-01-27T03:25:31.687968
MEAN_MOTION    = 14.86382601
ECCENTRICITY   = .00180578
INCLINATION    = 82.5243
RA_OF_ASC_NODE = 64.0117
ARG_OF_PERICENTER = 334.5205
MEAN_ANOMALY   = 25.5119

EPHEMERIS_TYPE = 0
CLASSIFICATION_TYPE = U
NORAD_CAT_ID   = 15945
ELEMENT_SET_NO = 999
REV_AT_EPOCH   = 16666
BSTAR          = .80794477E-4
MEAN_MOTION_DOT = .738E-5
MEAN_MOTION_DDOT = 0

CCSDS_OMM_VERS = 2.0
CREATION_DATE  = 
ORIGINATOR     = 

OBJECT_NAME    = SL-16 R/B
OBJECT_ID      = 1985-097B
CENTER_NAME    = EARTH
REF_FRAME      = TEME
TIME_SYSTEM    = UTC
MEAN_ELEMENT_THEORY = SGP/SGP4

EPOCH          = 2026-01-27T06:38:04.295040
MEAN_MOTION    = 14.16591378
ECCENTRICITY   = .00090596
INCLINATION    = 71.0000
RA_OF_ASC_NODE = 227.7369
ARG_OF_PERICENTER = 308.5413
MEAN_ANOMALY   = 224.8615

EPHEMERIS_TYPE = 0
CLASSIFICATION_TYPE = U
NORAD_CAT_ID   = 16182
ELEMENT_SET_NO = 999
REV_AT_EPOCH   = 8136
BSTAR          = .9890492E-4
MEAN_MOTION_DOT = .149E-5
MEAN_MOTION_DDOT = 0

CCSDS_OMM_VERS = 2.0
CREATION_DATE  = 
ORIGINATOR     = 

OBJECT_NAME    = SL-14 R/B
OBJECT_ID      = 1986-006B
CENTER_NAME    = EARTH
REF_FRAME      = TEME
TIME_SYSTEM    = UTC
MEAN_ELEMENT_THEORY = SGP/SGP4

EPOCH          = 2026-01-27T06:21:56.715264
MEAN_MOTION    = 14.86750908
ECCENTRICITY   = .00779118
INCLINATION    = 82.5284
RA_OF_ASC_NODE = 298.7222
ARG_OF_PERICENTER = 50.7530
MEAN_ANOMALY   = 310.0566

EPHEMERIS_TYPE = 0
CLASSIFICATION_TYPE = U
NORAD_CAT_ID   = 16496
ELEMENT_SET_NO = 999
REV_AT_EPOCH   = 14305
BSTAR          = .13664382E-3
MEAN_MOTION_DOT = .1312E-4
MEAN_MOTION_DDOT = 0

CCSDS_OMM_VERS = 2.0
CREATION_DATE  = 
ORIGINATOR     = 

OBJECT_NAME    = COSMOS 1743
OBJECT_ID      = 1986-034A
CENTER_NAME    = EARTH
REF_FRAME      = TEME
TIME_SYSTEM    = UTC
MEAN_ELEMENT_THEORY = SGP/SGP4

EPOCH          = 2026-01-27T07:37:38.404704
MEAN_MOTION    = 15.55477875
ECCENTRICITY   = .00054822
INCLINATION    = 82.5355
RA_OF_ASC_NODE = 117.1439
ARG_OF_PERICENTER = 87.0109
MEAN_ANOMALY   = 273.1772

EPHEMERIS_TYPE = 0
CLASSIFICATION_TYPE = U
NORAD_CAT_ID   = 16719
ELEMENT_SET_NO = 999
REV_AT_EPOCH   = 17381
BSTAR          = .68997022E-3
MEAN_MOTION_DOT = .47316E-3
MEAN_MOTION_DDOT = 0

